GLOBALSTAR M063         
1 26081U 00008A   25017.76182826 -.00000095  00000+0 -17799-3 0  9991
2 26081  51.9941 147.7370 0004916  37.4861 111.2712 11.86168441139723
GLOBALSTAR M062         
1 26082U 00008B   25018.44496951 -.00000062  00000+0  26084-3 0  9995
2 26082  51.9822 176.1256 0007731 145.7192 249.3713 12.43458333140495
GLOBALSTAR M060         
1 26083U 00008C   25018.03469425 -.00000207  00000+0 -11544-2 0  9993
2 26083  52.0018 116.0974 0003972 167.5585   8.1698 12.17650640134252
GLOBALSTAR M064         
1 26084U 00008D   25018.36201319 -.00000063  00000+0  29445-3 0  9995
2 26084  52.0009 246.7534 0002340 105.5648 254.5442 11.88529158149397
GLOBALSTAR M065         
1 31571U 07020A   25018.32159465 -.00000137  00000+0 -18801-3 0  9990
2 31571  51.9916 322.4092 0010442 337.8182 187.1432 12.61990571814791
GLOBALSTAR M069         
1 31573U 07020C   25017.92085014 -.00000044  00000+0  37593-3 0  9990
2 31573  51.9940 284.7109 0001669  23.9717  58.6091 12.47306148815404
GLOBALSTAR M072         
1 31574U 07020D   25017.81442351 -.00000085  00000+0 -16942-4 0  9992
2 31574  52.0096  32.2568 0000769  69.2239 101.4852 11.91772067813535
GLOBALSTAR M071         
1 31576U 07020F   25017.90430479  .00000033  00000+0  12250-2 0  9999
2 31576  52.0071 291.9417 0001016 105.6613 331.1170 12.18246910476627
